[{"OBJECT_NAME":"STARLINK-1308","OBJECT_ID":"2020-019BM","EPOCH":"2026-03-09T11:44:15.370656","MEAN_MOTION":15.50558102,"ECCENTRICITY":0.00022951,"INCLINATION":53.0542,"RA_OF_ASC_NODE":153.0711,"ARG_OF_PERICENTER":20.5491,"MEAN_ANOMALY":339.561,"EPHEMERIS_TYPE":0,"CLASSIFICATION_TYPE":"U","NORAD_CAT_ID":45419,"ELEMENT_SET_NO":999,"REV_AT_EPOCH":32964,"BSTAR":0.0016250615,"MEAN_MOTION_DOT":0.00095173,"MEAN_MOTION_DDOT":0},{"OBJECT_NAME":"SITRO-AIS 37","OBJECT_ID":"2024-199AX","EPOCH":"2026-03-09T21:39:06.332832","MEAN_MOTION":15.50371967,"ECCENTRICITY":0.00074688,"INCLINATION":97.3098,"RA_OF_ASC_NODE":303.0596,"ARG_OF_PERICENTER":300.2136,"MEAN_ANOMALY":59.8376,"EPHEMERIS_TYPE":0,"CLASSIFICATION_TYPE":"U","NORAD_CAT_ID":61780,"ELEMENT_SET_NO":999,"REV_AT_EPOCH":11901,"BSTAR":0.0007407449,"MEAN_MOTION_DOT":0.00042171,"MEAN_MOTION_DDOT":0}]
